     2              NAVIGATION DATA                         RINEX VERSION / TYPE
CCRINEXN V1.6.0 UX  CDDIS               02-SEP-08 02:51     PGM / RUN BY / DATE 
IGS BROADCAST EPHEMERIS FILE                                COMMENT             
    0.6519E-08  0.1490E-07 -0.5960E-07 -0.1192E-06          ION ALPHA           
    0.7782E+05  0.3277E+05 -0.6554E+05 -0.1966E+06          ION BETA            
    0.838190317154E-08 0.222044604925E-13   233472     1495 DELTA-UTC: A0,A1,T,W
    14                                                      LEAP SECONDS        
                                                            END OF HEADER       
21 08  9  1 14  0  0.0 0.522802583873E-04-0.147792889038E-11 0.000000000000E+00
    0.710000000000E+02 0.864062500000E+02 0.528236288876E-08 0.161850303041E+01
    0.458396971226E-05 0.142555407947E-01 0.614486634731E-05 0.515369042587E+04
    0.136800000000E+06-0.152736902237E-06-0.189268310464E+01 0.126659870148E-06
    0.935331646946E+00 0.250125000000E+03-0.268172099944E+01-0.867143262855E-08
    0.291083553370E-09 0.100000000000E+01 0.149500000000E+04 0.000000000000E+00
    0.200000000000E+01 0.000000000000E+00-0.116415321827E-07 0.710000000000E+02
    0.133740000000E+06 0.000000000000E+00 0.000000000000E+00 0.000000000000E+00
22 08  9  1 14  0  0.0 0.211126171053E-03-0.227373675443E-12 0.000000000000E+00
    0.300000000000E+02-0.657187500000E+02 0.523200364824E-08-0.802933126668E+00
   -0.330433249474E-05 0.510595296510E-02 0.470504164696E-05 0.515366073227E+04
    0.136800000000E+06-0.242143869400E-07-0.827497673171E+00 0.113621354103E-06
    0.943812515134E+00 0.281312500000E+03-0.183246187563E+01-0.866928968214E-08
   -0.298583865788E-09 0.100000000000E+01 0.149500000000E+04 0.000000000000E+00
    0.200000000000E+01 0.000000000000E+00-0.181607902050E-07 0.300000000000E+02
    0.129618000000E+06 0.400000000000E+01 0.000000000000E+00 0.000000000000E+00
23 08  9  1 14  0  0.0 0.371421687305E-03 0.147792889038E-11 0.000000000000E+00
    0.520000000000E+02-0.114375000000E+02 0.403302513454E-08-0.209736266195E+01
   -0.599771738052E-06 0.586510042194E-02 0.130701810122E-04 0.515370568275E+04
    0.136800000000E+06-0.113621354103E-06 0.182364781322E+00-0.316649675369E-07
    0.971579687748E+00 0.140625000000E+03 0.281571115411E+01-0.770496379981E-08
    0.785747015231E-10 0.100000000000E+01 0.149500000000E+04 0.000000000000E+00
    0.340000000000E+01 0.000000000000E+00-0.200234353542E-07 0.520000000000E+02
    0.129606000000E+06 0.400000000000E+01 0.000000000000E+00 0.000000000000E+00
24 08  9  1 14  0  0.0 0.121769495308E-03 0.306954461848E-11 0.000000000000E+00
    0.580000000000E+02 0.800625000000E+02 0.499163649312E-08 0.284036746653E+00
    0.412203371525E-05 0.756558543071E-02 0.542402267456E-05 0.515365954781E+04
    0.136800000000E+06 0.800937414169E-07-0.186506220920E+01-0.117346644402E-06
    0.951965174725E+00 0.269093750000E+03-0.716949140792E+00-0.858571477234E-08
    0.433946647048E-09 0.100000000000E+01 0.149500000000E+04 0.000000000000E+00
    0.200000000000E+01 0.000000000000E+00-0.139698386192E-08 0.580000000000E+02
    0.129600000000E+06 0.000000000000E+00 0.000000000000E+00 0.000000000000E+00
25 08  9  1 14  0  0.0-0.229435041547E-03 0.558202373213E-10 0.000000000000E+00
    0.700000000000E+02 0.709687500000E+02 0.475055502254E-08 0.783953338689E+00
    0.366568565369E-05 0.115945672151E-01 0.683031976223E-05 0.515369591904E+04
    0.136800000000E+06-0.193715095520E-06 0.113032699232E+01-0.182539224625E-06
    0.965901855449E+00 0.253437500000E+03-0.124887218017E+01-0.841606484860E-08
    0.545022702383E-09 0.100000000000E+01 0.149500000000E+04 0.000000000000E+00
    0.340000000000E+01 0.630000000000E+02-0.745058059692E-08 0.700000000000E+02
    0.129606000000E+06 0.400000000000E+01 0.000000000000E+00 0.000000000000E+00
26 08  9  1 14  0  0.0 0.319046899676E-03 0.579802872380E-11 0.000000000000E+00
    0.900000000000E+02 0.209375000000E+01 0.343621456070E-08-0.262498442667E+01
   -0.266358256340E-06 0.191361067118E-01 0.136997550726E-04 0.515363412476E+04
    0.136800000000E+06 0.247731804848E-06 0.226412188462E+00-0.214204192162E-06
    0.993717248769E+00 0.127468750000E+03 0.952709756140E+00-0.722030075451E-08
    0.180721813503E-09 0.100000000000E+01 0.149500000000E+04 0.000000000000E+00
    0.200000000000E+01 0.000000000000E+00-0.605359673500E-08 0.900000000000E+02
    0.129600000000E+06 0.000000000000E+00 0.000000000000E+00 0.000000000000E+00
27 08  9  1 14  0  0.0 0.214446801692E-03 0.284217094304E-11 0.000000000000E+00
    0.380000000000E+02 0.678750000000E+02 0.475519807309E-08 0.757950158546E+00
    0.358745455742E-05 0.211508992361E-01 0.707432627678E-05 0.515373454666E+04
    0.136800000000E+06-0.335276126862E-06 0.116546885786E+01-0.372529029846E-08
    0.970486160873E+00 0.255468750000E+03-0.168932412786E+01-0.863321675099E-08
    0.416803075807E-09 0.100000000000E+01 0.149500000000E+04 0.000000000000E+00
    0.200000000000E+01 0.000000000000E+00-0.419095158577E-08 0.380000000000E+02
    0.129600000000E+06 0.000000000000E+00 0.000000000000E+00 0.000000000000E+00
28 08  9  1 14  0  0.0-0.222139060497E-04-0.227373675443E-12 0.000000000000E+00
    0.170000000000E+02-0.677812500000E+02 0.491306179160E-08-0.473171985992E+00
   -0.351853668690E-05 0.139533169568E-01 0.503100454807E-05 0.515363375664E+04
    0.136800000000E+06-0.134110450745E-06 0.230100191335E+01 0.126659870148E-06
    0.964446388012E+00 0.284218750000E+03-0.209258895106E+01-0.863000233138E-08
   -0.540736809573E-09 0.100000000000E+01 0.149500000000E+04 0.000000000000E+00
    0.200000000000E+01 0.000000000000E+00-0.102445483208E-07 0.170000000000E+02
    0.131010000000E+06 0.000000000000E+00 0.000000000000E+00 0.000000000000E+00
29 08  9  1 14  0  0.0-0.386307947338E-04 0.909494701773E-12 0.000000000000E+00
    0.980000000000E+02-0.931250000000E+01 0.424267672452E-08 0.174557215182E+01
   -0.633299350738E-06 0.355105393100E-02 0.133570283651E-04 0.515361516380E+04
    0.136800000000E+06 0.894069671631E-07-0.294155145506E+01-0.558793544769E-07
    0.960266908594E+00 0.118375000000E+03-0.137677314461E+01-0.780818238499E-08
   -0.180007498035E-09 0.100000000000E+01 0.149500000000E+04 0.000000000000E+00
    0.280000000000E+01 0.000000000000E+00-0.884756445885E-08 0.980000000000E+02
    0.129600000000E+06 0.000000000000E+00 0.000000000000E+00 0.000000000000E+00
30 08  9  1 14  0  0.0 0.943071208894E-04 0.204636307899E-11 0.000000000000E+00
    0.890000000000E+02-0.594687500000E+02 0.535129433146E-08-0.235294427243E-01
   -0.302866101265E-05 0.110569937387E-01 0.450387597084E-05 0.515368902969E+04
    0.136800000000E+06-0.115483999252E-06 0.223253631442E+01 0.763684511185E-07
    0.949474126597E+00 0.285656250000E+03 0.139420511844E+01-0.882001024597E-08
   -0.453590322429E-09 0.100000000000E+01 0.149500000000E+04 0.000000000000E+00
    0.280000000000E+01 0.000000000000E+00-0.838190317154E-08 0.890000000000E+02
    0.131478000000E+06 0.400000000000E+01 0.000000000000E+00 0.000000000000E+00
31 08  9  1 14  0  0.0-0.250851735473E-04-0.113686837722E-12 0.000000000000E+00
    0.740000000000E+02 0.711250000000E+02 0.468448084172E-08 0.239483234958E+01
    0.378862023354E-05 0.666877150070E-02 0.622309744358E-05 0.515352702332E+04
    0.136800000000E+06 0.139698386192E-06 0.122199220301E+01-0.117346644402E-06
    0.968881230021E+00 0.259968750000E+03-0.123844777119E+01-0.814319633967E-08
    0.411088552060E-09 0.100000000000E+01 0.149500000000E+04 0.000000000000E+00
    0.200000000000E+01 0.000000000000E+00-0.130385160446E-07 0.740000000000E+02
    0.129618000000E+06 0.400000000000E+01 0.000000000000E+00 0.000000000000E+00
32 08  9  1 14  0  0.0 0.315303914249E-03 0.102318153950E-11 0.000000000000E+00
    0.270000000000E+02-0.702500000000E+02 0.447911530088E-08-0.284275222196E+01
   -0.370480120182E-05 0.139337852597E-01 0.460073351860E-05 0.515377676773E+04
    0.136800000000E+06 0.152736902237E-06-0.783546896159E+00 0.132247805595E-06
    0.967677955031E+00 0.287375000000E+03-0.129323167016E+01-0.800140487201E-08
   -0.294655133626E-09 0.100000000000E+01 0.149500000000E+04 0.000000000000E+00
    0.200000000000E+01 0.000000000000E+00-0.279396772385E-08 0.270000000000E+02
    0.129618000000E+06 0.400000000000E+01 0.000000000000E+00 0.000000000000E+00
 8 08  9  1 15 59 44.0-0.168162398040E-03-0.159161572810E-11 0.000000000000E+00
    0.400000000000E+02 0.710000000000E+02 0.429089301863E-08 0.302489847258E+01
    0.385753810406E-05 0.105188308517E-01 0.586546957493E-05 0.515372231293E+04
    0.143984000000E+06-0.223517417908E-06 0.128014603764E+01 0.465661287308E-07
    0.984563599186E+00 0.280312500000E+03 0.289950182201E+01-0.790675791963E-08
    0.580024160334E-09 0.100000000000E+01 0.149500000000E+04 0.000000000000E+00
    0.240000000000E+01 0.000000000000E+00-0.372529029846E-08 0.400000000000E+02
    0.136806000000E+06 0.400000000000E+01 0.000000000000E+00 0.000000000000E+00
10 08  9  1 15 59 44.0-0.441586598754E-05-0.454747350886E-12 0.000000000000E+00
    0.190000000000E+02-0.609062500000E+02 0.466162274673E-08 0.771947052979E-01
   -0.307522714138E-05 0.799712399021E-02 0.469945371151E-05 0.515369408226E+04
    0.143984000000E+06 0.540167093277E-07-0.843326234666E+00 0.875443220139E-07
    0.962074027891E+00 0.288343750000E+03 0.557782774554E+00-0.844570894053E-08
   -0.344300055765E-09 0.100000000000E+01 0.149500000000E+04 0.000000000000E+00
    0.200000000000E+01 0.000000000000E+00-0.232830643654E-08 0.190000000000E+02
    0.136800000000E+06 0.000000000000E+00 0.000000000000E+00 0.000000000000E+00
